[{"OBJECT_NAME":"STARLINK-5061","OBJECT_ID":"2022-177AD","EPOCH":"2026-03-09T11:09:52.793568","MEAN_MOTION":15.02532329,"ECCENTRICITY":0.00012767,"INCLINATION":43.004,"RA_OF_ASC_NODE":108.3577,"ARG_OF_PERICENTER":269.0356,"MEAN_ANOMALY":91.034,"EPHEMERIS_TYPE":0,"CLASSIFICATION_TYPE":"U","NORAD_CAT_ID":54847,"ELEMENT_SET_NO":999,"REV_AT_EPOCH":17722,"BSTAR":-6.0750129e-5,"MEAN_MOTION_DOT":-1.024e-5,"MEAN_MOTION_DDOT":0},{"OBJECT_NAME":"COSMOS 2251 DEB","OBJECT_ID":"1993-036BRU","EPOCH":"2026-02-21T14:09:45.153216","MEAN_MOTION":14.99001579,"ECCENTRICITY":0.0017259,"INCLINATION":74.0061,"RA_OF_ASC_NODE":146.9269,"ARG_OF_PERICENTER":277.3195,"MEAN_ANOMALY":147.2685,"EPHEMERIS_TYPE":0,"CLASSIFICATION_TYPE":"U","NORAD_CAT_ID":38062,"ELEMENT_SET_NO":999,"REV_AT_EPOCH":64090,"BSTAR":0.0019091,"MEAN_MOTION_DOT":0.00023247,"MEAN_MOTION_DDOT":0}]
